SES-1                   
1 36516U 10016A   26159.24739631 -.00000099  00000+0  00000+0 0  9994
2 36516   0.0152 319.6922 0002780 119.1705 165.8486  1.00271784 58948
ASTRA 3B                
1 36581U 10021A   26159.27709999  .00000153  00000+0  00000+0 0  9999
2 36581   1.4477  83.6614 0004468 351.8839 304.3766  1.00274247 58778
COMSATBW-2              
1 36582U 10021B   26159.27501999  .00000104  00000+0  00000+0 0  9996
2 36582   0.0214  33.8866 0002715  57.0974 277.8925  1.00269942 58864
BEIDOU-2 G3             
1 36590U 10024A   26159.03879343 -.00000122  00000+0  00000+0 0  9994
2 36590   4.4933  61.5531 0008476 350.7602 297.7887  1.00273007 58671
BADR-5                  
1 36592U 10025A   26159.27848667  .00000170  00000+0  00000+0 0  9990
2 36592   0.0630 115.0337 0003452  66.9105 205.5484  1.00278136 53124
COMS 1                  
1 36744U 10032A   26154.99142485 -.00000334  00000+0  00000+0 0  9999
2 36744   4.7750  75.5286 0001016   4.5847 297.3769  1.00270643 50953
ARABSAT-5A              
1 36745U 10032B   26159.27848667  .00000169  00000+0  00000+0 0  9996
2 36745   0.0726  51.9991 0005478  46.1236 289.2834  1.00269665 58556
ECHOSTAR 15             
1 36792U 10034A   26159.24893787  .00000015  00000+0  00000+0 0  9990
2 36792   0.0110  14.9687 0001814  62.4446 150.0332  1.00271659 58239
BEIDOU-2 IGSO-1         
1 36828U 10036A   26158.70202793 -.00000045  00000+0  00000+0 0  9997
2 36828  54.3007 163.0453 0059223 225.1119 228.3319  1.00275414 58007
NILESAT 201             
1 36830U 10037A   26159.27094663 -.00000042  00000+0  00000+0 0  9996
2 36830   0.0166 152.2013 0004426 314.5957 240.4180  1.00272006 58289
RASCOM-QAF 1R           
1 36831U 10037B   26159.27302664  .00000034  00000+0  00000+0 0  9990
2 36831   0.0034  11.3021 0006758  63.2859 283.2585  1.00270747 58214
AEHF-1 (USA 214)        
1 36868U 10039A   26159.00015365  .00000161  00000+0  00000+0 0  9993
2 36868   8.1955  68.1666 0004076   4.7350 213.4774  1.00270573 53562
XM-5                    
1 37185U 10053A   26158.96438888 -.00000008  00000+0  00000+0 0  9996
2 37185   0.0662 273.0807 0002611 283.2447 292.0284  1.00269706 57399
BSAT-3B                 
1 37207U 10056B   26158.99157317 -.00000335  00000+0  00000+0 0  9995
2 37207   0.0512 236.9424 0001365 305.3197 180.9490  1.00272829 52001
BEIDOU-2 G4             
1 37210U 10057A   26159.16147832 -.00000097  00000+0  00000+0 0  9996
2 37210   3.6238  68.9996 0004839 201.0657 204.6389  1.00272001 57208
SKYTERRA 1              
1 37218U 10061A   26158.68199340 -.00000104  00000+0  00000+0 0  9995
2 37218   5.1042  50.8588 0002798  21.1699 328.2468  1.00270898 57092
HYLAS 1                 
1 37237U 10065A   26159.06225248  .00000104  00000+0  00000+0 0  9999
2 37237   5.6195  73.1295 0001027 316.1676 263.3742  1.00272486  6796
INTELSAT 17 (IS-17)     
1 37238U 10065B   26159.21423321  .00000014  00000+0  00000+0 0  9999
2 37238   0.0098 109.1779 0002577 341.8712 308.6807  1.00272309 53153
BEIDOU-2 IGSO-2         
1 37256U 10068A   26157.74761939 -.00000212  00000+0  00000+0 0  9999
2 37256  47.5684 271.9632 0054983 212.5902 147.2585  1.00287050 56690
EUTELSAT KA-SAT 9A      
1 37258U 10069A   26158.91773906  .00000077  00000+0  00000+0 0  9997
2 37258   0.0610  11.4051 0004089 120.3466 103.9518  1.00272969 43919
HISPASAT 30W-5          
1 37264U 10070A   26159.26643994 -.00000200  00000+0  00000+0 0  9997
2 37264   0.0629 105.2003 0005172 354.2503 223.1398  1.00270317 53095
KOREASAT 6              
1 37265U 10070B   26159.23279683 -.00000096  00000+0  00000+0 0  9998
2 37265   0.0311  80.2075 0002264   4.0309  56.0876  1.00271617 56684
BEIDOU-2 IGSO-3         
1 37384U 11013A   26158.96895576 -.00000187  00000+0  00000+0 0  9993
2 37384  62.3942  40.2405 0034533 184.6500 128.2544  1.00270210 55560
INTELSAT 28 (IS-28)     
1 37392U 11016A   26159.26617994 -.00000209  00000+0  00000+0 0  9990
2 37392   1.7822  82.7332 0003884 354.5553 243.4889  1.00268718 53193
YAHSAT 1A               
1 37393U 11016B   26159.21154653  .00000000  00000+0  00000+0 0  9992
2 37393   0.0157 335.8228 0002909 114.3507 295.0779  1.00269148 42312
SBIRS GEO-1 (USA 230)   
1 37481U 11019A   26159.21137319  .00000114  00000+0  00000+0 0  9999
2 37481   4.5169  53.1324 0002140  14.9411 316.4179  1.00272120 55304
TELSTAR 14R             
1 37602U 11021A   26158.76091038 -.00000265  00000+0  00000+0 0  9991
2 37602   0.0165  51.1187 0002424  13.2355  42.7429  1.00271757 55745
GSAT-8                  
1 37605U 11022A   26159.21206653  .00000100  00000+0  00000+0 0  9994
2 37605   2.1069  81.9333 0002221 210.9602  95.1269  1.00270958 53120
ST-2                    
1 37606U 11022B   26159.14723940 -.00000196  00000+0  00000+0 0  9996
2 37606   0.0210  69.6916 0001840  24.8002 303.0805  1.00270866 55181
ZHONGXING-10            
1 37677U 11026A   26159.14680606 -.00000173  00000+0  00000+0 0  9994
2 37677   1.0227  84.3056 0003691 357.4571 313.1684  1.00270985 54907
SES-3                   
1 37748U 11035A   26159.24206712 -.00000086  00000+0  00000+0 0  9999
2 37748   1.3027  83.1870 0002678 349.0731 168.5142  1.00270992 54502
KAZSAT-2                
1 37749U 11035B   26159.14697940 -.00000182  00000+0  00000+0 0  9993
2 37749   0.0352 246.2515 0001329 256.6959 253.0151  1.00269956 53300
