OBJECT_NAME,OBJECT_ID,EPOCH,MEAN_MOTION,ECCENTRICITY,INCLINATION,RA_OF_ASC_NODE,ARG_OF_PERICENTER,MEAN_ANOMALY,EPHEMERIS_TYPE,CLASSIFICATION_TYPE,NORAD_CAT_ID,ELEMENT_SET_NO,REV_AT_EPOCH,BSTAR,MEAN_MOTION_DOT,MEAN_MOTION_DDOT
SES-1,2010-016A,2026-06-08T05:56:15.041184,1.00271784,.00027802,0.0152,319.6922,119.1705,165.8486,0,U,36516,999,5894,0,-.99E-6,0
ASTRA 3B,2010-021A,2026-06-08T06:39:01.439136,1.00274247,.00044683,1.4477,83.6614,351.8839,304.3766,0,U,36581,999,5877,0,.153E-5,0
COMSATBW-2,2010-021B,2026-06-08T06:36:01.727136,1.00269942,.00027156,0.0214,33.8866,57.0974,277.8925,0,U,36582,999,5886,0,.104E-5,0
BEIDOU-2 G3,2010-024A,2026-06-08T00:55:51.752352,1.00273007,.00084768,4.4933,61.5531,350.7602,297.7887,0,U,36590,999,5867,0,-.122E-5,0
BADR-5,2010-025A,2026-06-08T06:41:01.248288,1.00278136,.00034523,0.0630,115.0337,66.9105,205.5484,0,U,36592,999,5312,0,.17E-5,0
COMS 1,2010-032A,2026-06-03T23:47:39.107040,1.00270643,.0001016,4.7750,75.5286,4.5847,297.3769,0,U,36744,999,5095,0,-.334E-5,0
ARABSAT-5A,2010-032B,2026-06-08T06:41:01.248288,1.00269665,.00054781,0.0726,51.9991,46.1236,289.2834,0,U,36745,999,5855,0,.169E-5,0
ECHOSTAR 15,2010-034A,2026-06-08T05:58:28.231968,1.00271659,.00018144,0.0110,14.9687,62.4446,150.0332,0,U,36792,999,5823,0,.15E-6,0
BEIDOU-2 IGSO-1,2010-036A,2026-06-07T16:50:55.213152,1.00275414,.00592234,54.3007,163.0453,225.1119,228.3319,0,U,36828,999,5800,0,-.45E-6,0
NILESAT 201,2010-037A,2026-06-08T06:30:09.788832,1.00272006,.00044263,0.0166,152.2013,314.5957,240.4180,0,U,36830,999,5828,0,-.42E-6,0
RASCOM-QAF 1R,2010-037B,2026-06-08T06:33:09.501696,1.00270747,.00067588,0.0034,11.3021,63.2859,283.2585,0,U,36831,999,5821,0,.34E-6,0
AEHF-1 (USA 214),2010-039A,2026-06-08T00:00:13.275360,1.00270573,.00040761,8.1955,68.1666,4.7350,213.4774,0,U,36868,999,5356,0,.161E-5,0
XM-5,2010-053A,2026-06-07T23:08:43.199232,1.00269706,.00026119,0.0662,273.0807,283.2447,292.0284,0,U,37185,999,5739,0,-.8E-7,0
BSAT-3B,2010-056B,2026-06-07T23:47:51.921888,1.00272829,.0001365,0.0512,236.9424,305.3197,180.9490,0,U,37207,999,5200,0,-.335E-5,0
BEIDOU-2 G4,2010-057A,2026-06-08T03:52:31.726848,1.00272001,.00048395,3.6238,68.9996,201.0657,204.6389,0,U,37210,999,5720,0,-.97E-6,0
SKYTERRA 1,2010-061A,2026-06-07T16:22:04.229760,1.00270898,.00027982,5.1042,50.8588,21.1699,328.2468,0,U,37218,999,5709,0,-.104E-5,0
HYLAS 1,2010-065A,2026-06-08T01:29:38.614272,1.00272486,.0001027,5.6195,73.1295,316.1676,263.3742,0,U,37237,999,679,0,.104E-5,0
INTELSAT 17 (IS-17),2010-065B,2026-06-08T05:08:29.749344,1.00272309,.00025771,0.0098,109.1779,341.8712,308.6807,0,U,37238,999,5315,0,.14E-6,0
BEIDOU-2 IGSO-2,2010-068A,2026-06-06T17:56:34.315296,1.00287050,.00549834,47.5684,271.9632,212.5902,147.2585,0,U,37256,999,5669,0,-.212E-5,0
EUTELSAT KA-SAT 9A,2010-069A,2026-06-07T22:01:32.654784,1.00272969,.00040895,0.0610,11.4051,120.3466,103.9518,0,U,37258,999,4391,0,.77E-6,0
HISPASAT 30W-5,2010-070A,2026-06-08T06:23:40.410816,1.00270317,.00051728,0.0629,105.2003,354.2503,223.1398,0,U,37264,999,5309,0,-.2E-5,0
KOREASAT 6,2010-070B,2026-06-08T05:35:13.646112,1.00271617,.00022641,0.0311,80.2075,4.0309,56.0876,0,U,37265,999,5668,0,-.96E-6,0
BEIDOU-2 IGSO-3,2011-013A,2026-06-07T23:15:17.777664,1.00270210,.00345336,62.3942,40.2405,184.6500,128.2544,0,U,37384,999,5556,0,-.187E-5,0
INTELSAT 28 (IS-28),2011-016A,2026-06-08T06:23:17.946816,1.00268718,.00038849,1.7822,82.7332,354.5553,243.4889,0,U,37392,999,5319,0,-.209E-5,0
YAHSAT 1A,2011-016B,2026-06-08T05:04:37.620192,1.00269148,.00029096,0.0157,335.8228,114.3507,295.0779,0,U,37393,999,4231,0,0,0
SBIRS GEO-1 (USA 230),2011-019A,2026-06-08T05:04:22.643616,1.00272120,.00021402,4.5169,53.1324,14.9411,316.4179,0,U,37481,999,5530,0,.114E-5,0
TELSTAR 14R,2011-021A,2026-06-07T18:15:42.656832,1.00271757,.00024242,0.0165,51.1187,13.2355,42.7429,0,U,37602,999,5574,0,-.265E-5,0
GSAT-8,2011-022A,2026-06-08T05:05:22.548192,1.00270958,.00022217,2.1069,81.9333,210.9602,95.1269,0,U,37605,999,5312,0,.1E-5,0
ST-2,2011-022B,2026-06-08T03:32:01.484160,1.00270866,.00018401,0.0210,69.6916,24.8002,303.0805,0,U,37606,999,5518,0,-.196E-5,0
ZHONGXING-10,2011-026A,2026-06-08T03:31:24.043584,1.00270985,.00036919,1.0227,84.3056,357.4571,313.1684,0,U,37677,999,5490,0,-.173E-5,0
SES-3,2011-035A,2026-06-08T05:48:34.599168,1.00270992,.0002678,1.3027,83.1870,349.0731,168.5142,0,U,37748,999,5450,0,-.86E-6,0
KAZSAT-2,2011-035B,2026-06-08T03:31:39.020160,1.00269956,.00013292,0.0352,246.2515,256.6959,253.0151,0,U,37749,999,5330,0,-.182E-5,0
